API VERSION: 1.2
API SOURCE: NASA/JPL Horizons API



*******************************************************************************
Ephemeris / API_USER Fri Apr  3 11:25:16 2026 Pasadena, USA      / Horizons
*******************************************************************************
Target body name: Venus (299)                     {source: DE441}
Center body name: Sun (10)                        {source: DE441}
Center-site name: BODY CENTER
*******************************************************************************
Start time      : A.D. 2025-Jul-11 16:45:00.0003 TDB
Stop  time      : A.D. 2025-Jul-13 16:45:00.0003 TDB
Step-size       : 60 minutes
*******************************************************************************
Center geodetic : 0.0, 0.0, 0.0                   {E-lon(deg),Lat(deg),Alt(km)}
Center cylindric: 0.0, 0.0, 0.0                   {E-lon(deg),Dxy(km),Dz(km)}
Center radii    : 695700.0, 695700.0, 695700.0 km {Equator_a, b, pole_c}
Output units    : AU-D
Calendar mode   : Mixed Julian/Gregorian
Output type     : GEOMETRIC cartesian states
Output format   : 3 (position, velocity, LT, range, range-rate)
Reference frame : Ecliptic of J2000.0
*******************************************************************************
            JDTDB,            Calendar Date (TDB),                      X,                      Y,                      Z,                     VX,                     VY,                     VZ,                     LT,                     RG,                     RR,
**************************************************************************************************************************************************************************************************************************************************************************
$$SOE
2460869.447916670, A.D. 2025-Jul-12 22:45:00.0003,  7.253167497381018E-01,  5.027213809258201E-03, -4.178191118453586E-02, -2.263505379461111E-04,  2.013327460393689E-02,  2.896577343277288E-04,  4.196125282008764E-03,  7.265365706085005E-01, -1.033175990532333E-04,
2460869.489583337, A.D. 2025-Jul-12 23:45:00.0003,  7.253068326531217E-01,  5.866096696230567E-03, -4.176981412956601E-02, -2.496695570852564E-04,  2.013309947518992E-02,  2.910008433862043E-04,  4.196100406422357E-03,  7.265322635342297E-01, -1.034219431872081E-04,
2460869.531250003, A.D. 2025-Jul-13 00:45:00.0003,  7.252959439405597E-01,  6.704971724223508E-03, -4.175766111933604E-02, -2.729886567440231E-04,  2.013289737280672E-02,  2.923435865142696E-04,  4.196075505742324E-03,  7.265279521151320E-01, -1.035261507337214E-04,
2460869.572916670, A.D. 2025-Jul-13 01:45:00.0003,  7.252840835977028E-01,  7.543837769320973E-03, -4.174545216913036E-02, -2.963078060992404E-04,  2.013266829609408E-02,  2.936859619238821E-04,  4.196050580001547E-03,  7.265236363569010E-01, -1.036302215493244E-04,
2460869.614583337, A.D. 2025-Jul-13 02:45:00.0003,  7.252712516231228E-01,  8.382693707578727E-03, -4.173318729430776E-02, -3.196269743254626E-04,  2.013241224439346E-02,  2.950279678273504E-04,  4.196025629232950E-03,  7.265193162652372E-01, -1.037341554907339E-04,
2460869.656250003, A.D. 2025-Jul-13 03:45:00.0003,  7.252574480166750E-01,  9.221538415025821E-03, -4.172086651030159E-02, -3.429461305950088E-04,  2.013212921708103E-02,  2.963696024373340E-04,  4.196000653469486E-03,  7.265149918458463E-01, -1.038379524148336E-04,
2460869.697916670, A.D. 2025-Jul-13 04:45:00.0003,  7.252426727795006E-01,  1.006037076766600E-02, -4.170848983261966E-02, -3.662652440779966E-04,  2.013181921356761E-02,  2.977108639668357E-04,  4.195975652744146E-03,  7.265106631044409E-01, -1.039416121786715E-04,
2460869.739583337, A.D. 2025-Jul-13 05:45:00.0003,  7.252269259140244E-01,  1.089918964147926E-02, -4.169605727684417E-02, -3.895842839423814E-04,  2.013148223329872E-02,  2.990517506292127E-04,  4.195950627089954E-03,  7.265063300467385E-01, -1.040451346394597E-04,
2460869.781250003, A.D. 2025-Jul-13 06:45:00.0003,  7.252102074239563E-01,  1.173799391242318E-02, -4.168356885863185E-02, -4.129032193539932E-04,  2.013111827575457E-02,  3.003922606381769E-04,  4.195925576539971E-03,  7.265019926784634E-01, -1.041485196545768E-04,
2460869.822916670, A.D. 2025-Jul-13 07:45:00.0003,  7.251925173142906E-01,  1.257678245643435E-02, -4.167102459371377E-02, -4.362220194765751E-04,  2.013072734045009E-02,  3.017323922077900E-04,  4.195900501127285E-03,  7.264976510053449E-01, -1.042517670815684E-04,
2460869.864583337, A.D. 2025-Jul-13 08:45:00.0003,  7.251738555913072E-01,  1.341555414942996E-02, -4.165842449789544E-02, -4.595406534718174E-04,  2.013030942693490E-02,  3.030721435524895E-04,  4.195875400885029E-03,  7.264933050331196E-01, -1.043548767781444E-04,
2460869.906250003, A.D. 2025-Jul-13 09:45:00.0003,  7.251542222625703E-01,  1.425430786730910E-02, -4.164576858705676E-02, -4.828590904994005E-04,  2.012986453479333E-02,  3.044115128870543E-04,  4.195850275846361E-03,  7.264889547675284E-01, -1.044578486021820E-04,
2460869.947916670, A.D. 2025-Jul-13 10:45:00.0003,  7.251336173369296E-01,  1.509304248595429E-02, -4.163305687715201E-02, -5.061772997170256E-04,  2.012939266364443E-02,  3.057504984266378E-04,  4.195825126044480E-03,  7.264846002143195E-01, -1.045606824117240E-04,
2460869.989583337, A.D. 2025-Jul-13 11:45:00.0003,  7.251120408245196E-01,  1.593175688123286E-02, -4.162028938420981E-02, -5.294952502804578E-04,  2.012889381314199E-02,  3.070890983867503E-04,  4.195799951512610E-03,  7.264802413792462E-01, -1.046633780649809E-04,
2460870.031250003, A.D. 2025-Jul-13 12:45:00.0003,  7.250894927367604E-01,  1.677044992899854E-02, -4.160746612433315E-02, -5.528129113435606E-04,  2.012836798297452E-02,  3.084273109832758E-04,  4.195774752284017E-03,  7.264758782680681E-01, -1.047659354203279E-04,
2460870.072916670, A.D. 2025-Jul-13 13:45:00.0003,  7.250659730863570E-01,  1.760912050509265E-02, -4.159458711369936E-02, -5.761302520583338E-04,  2.012781517286524E-02,  3.097651344324664E-04,  4.195749528392003E-03,  7.264715108865508E-01, -1.048683543363105E-04,
2460870.114583337, A.D. 2025-Jul-13 14:45:00.0003,  7.250414818872999E-01,  1.844776748534584E-02, -4.158165236856004E-02, -5.994472415749515E-04,  2.012723538257214E-02,  3.111025669509499E-04,  4.195724279869896E-03,  7.264671392404647E-01, -1.049706346716389E-04,
2460870.156250003, A.D. 2025-Jul-13 15:45:00.0003,  7.250160191548652E-01,  1.928638974557932E-02, -4.156866190524114E-02, -6.227638490417989E-04,  2.012662861188796E-02,  3.124396067557181E-04,  4.195699006751063E-03,  7.264627633355880E-01, -1.050727762851913E-04,
2460870.197916670, A.D. 2025-Jul-13 16:45:00.0003,  7.249895849056145E-01,  2.012498616160644E-02, -4.155561574014285E-02, -6.460800436055104E-04,  2.012599486064016E-02,  3.137762520641517E-04,  4.195673709068904E-03,  7.264583831777031E-01, -1.051747790360138E-04,
